$$SOE
2460728.500000000, A.D. 2025-Feb-22 00:00:00.0000, -2.757883459990405E+08, -1.710359756970309E+07, -2.955538144225983E+07,
2460735.500000000, A.D. 2025-Mar-01 00:00:00.0000, -2.756662371971641E+08, -2.984304727602257E+07, -2.486863983344821E+07,
2460742.500000000, A.D. 2025-Mar-08 00:00:00.0000, -2.749239872187431E+08, -4.251542158493679E+07, -2.012594418305046E+07,
2460749.500000000, A.D. 2025-Mar-15 00:00:00.0000, -2.735667715462418E+08, -5.509275678084126E+07, -1.533822018478885E+07,
2460756.500000000, A.D. 2025-Mar-22 00:00:00.0000, -2.716012990671853E+08, -6.754765896831594E+07, -1.051638270476847E+07,
2460763.500000000, A.D. 2025-Mar-29 00:00:00.0000, -2.690357566976529E+08, -7.985338452494001E+07, -5.671299757220659E+06,
2460770.500000000, A.D. 2025-Apr-05 00:00:00.0000, -2.658797473287110E+08, -9.198391360884634E+07, -8.137581031801328E+05,
2460777.500000000, A.D. 2025-Apr-12 00:00:00.0000, -2.621442236804324E+08, -1.039140163563948E+08, 4.045569554298267E+06,
2460784.500000000, A.D. 2025-Apr-19 00:00:00.0000, -2.578414188938470E+08, -1.156193125077163E+08, 8.896155574558809E+06,
2460791.500000000, A.D. 2025-Apr-26 00:00:00.0000, -2.529847742617873E+08, -1.270763246341531E+08, 1.372764640264978E+07,
2460798.500000000, A.D. 2025-May-03 00:00:00.0000, -2.475888646909202E+08, -1.382625249961238E+08, 1.852988949172883E+07,
2460805.500000000, A.D. 2025-May-10 00:00:00.0000, -2.416693225704143E+08, -1.491563761175390E+08, 2.329295805369714E+07,
2460812.500000000, A.D. 2025-May-17 00:00:00.0000, -2.352427606760052E+08, -1.597373652510787E+08, 2.800717360299596E+07,
2460819.500000000, A.D. 2025-May-24 00:00:00.0000, -2.283266945440249E+08, -1.699860329631124E+08, 3.266312627561361E+07,
2460826.500000000, A.D. 2025-May-31 00:00:00.0000, -2.209394644463335E+08, -1.798839957447139E+08, 3.725169293426711E+07,
2460833.500000000, A.D. 2025-Jun-07 00:00:00.0000, -2.131001578590561E+08, -1.894139617018139E+08, 4.176405323470843E+07,
2460840.500000000, A.D. 2025-Jun-14 00:00:00.0000, -2.048285352282541E+08, -1.985597402851966E+08, 4.619170386849177E+07,
2460847.500000000, A.D. 2025-Jun-21 00:00:00.0000, -1.961449582077412E+08, -2.073062496584248E+08, 5.052647066988906E+07,
2460854.500000000, A.D. 2025-Jun-28 00:00:00.0000, -1.870703175902342E+08, -2.156395202880419E+08, 5.476051852551696E+07,
2460861.500000000, A.D. 2025-Jul-05 00:00:00.0000, -1.776259627500023E+08, -2.235466929561942E+08, 5.888635949481384E+07,
2460868.500000000, A.D. 2025-Jul-12 00:00:00.0000, -1.678336340387864E+08, -2.310160123590617E+08, 6.289685928447829E+07,
2460875.500000000, A.D. 2025-Jul-19 00:00:00.0000, -1.577153981469448E+08, -2.380368172255011E+08, 6.678524211597745E+07,
2460882.500000000, A.D. 2025-Jul-26 00:00:00.0000, -1.472935863774580E+08, -2.445995273747298E+08, 7.054509407031685E+07,
2460889.500000000, A.D. 2025-Aug-02 00:00:00.0000, -1.365907358885756E+08, -2.506956280509324E+08, 7.417036502021767E+07,
2460896.500000000, A.D. 2025-Aug-09 00:00:00.0000, -1.256295339679161E+08, -2.563176518959714E+08, 7.765536926380301E+07,
2460903.500000000, A.D. 2025-Aug-16 00:00:00.0000, -1.144327653113289E+08, -2.614591589534325E+08, 8.099478496375895E+07,
2460910.500000000, A.D. 2025-Aug-23 00:00:00.0000, -1.030232620309724E+08, -2.661147150016785E+08, 8.418365248015712E+07,
2460917.500000000, A.D. 2025-Aug-30 00:00:00.0000, -9.142385605233788E+07, -2.702798677993070E+08, 8.721737173599878E+07,
2460924.500000000, A.D. 2025-Sep-06 00:00:00.0000, -7.965733528199065E+07, -2.739511205207313E+08, 9.009169893393093E+07,
2460931.500000000, A.D. 2025-Sep-13 00:00:00.0000, -6.774640515703575E+07, -2.771259051229851E+08, 9.280274267567226E+07,
2460938.500000000, A.D. 2025-Sep-20 00:00:00.0000, -5.571365222416111E+07, -2.798025575307832E+08, 9.534695914766881E+07,
2460945.500000000, A.D. 2025-Sep-27 00:00:00.0000, -4.358150859759779E+07, -2.819802917533859E+08, 9.772114662576824E+07,
2460952.500000000, A.D. 2025-Oct-04 00:00:00.0000, -3.137221920867398E+07, -2.836591725966272E+08, 9.992243961748117E+07,
2460959.500000000, A.D. 2025-Oct-11 00:00:00.0000, -1.910781210576473E+07, -2.848400880942811E+08, 1.019483026814679E+08,
2460966.500000000, A.D. 2025-Oct-18 00:00:00.0000, -6.810071397943166E+06, -2.855247220947391E+08, 1.037965239511810E+08,
2460973.500000000, A.D. 2025-Oct-25 00:00:00.0000, 5.499487427214799E+06, -2.857155271348915E+08, 1.054652084187850E+08,
2460980.500000000, A.D. 2025-Nov-01 00:00:00.0000, 1.779963998748504E+07, -2.854156977121709E+08, 1.069527710392413E+08,
2460987.500000000, A.D. 2025-Nov-08 00:00:00.0000, 3.006947346580236E+07, -2.846291440981836E+08, 1.082579297077410E+08,
2460994.500000000, A.D. 2025-Nov-15 00:00:00.0000, 4.228840533314514E+07, -2.833604668498742E+08, 1.093796981474333E+08,
2461001.500000000, A.D. 2025-Nov-22 00:00:00.0000, 5.443620087479085E+07, -2.816149318803672E+08, 1.103173787381588E+08,
2461008.500000000, A.D. 2025-Nov-29 00:00:00.0000, 6.649298950279179E+07, -2.793984450223425E+08, 1.110705554363709E+08,
2461015.500000000, A.D. 2025-Dec-06 00:00:00.0000, 7.843927771133837E+07, -2.767175262736561E+08, 1.116390870208562E+08,
2461022.500000000, A.D. 2025-Dec-13 00:00:00.0000, 9.025595924185888E+07, -2.735792871361226E+08, 1.120231003801738E+08,
2461029.500000000, A.D. 2025-Dec-20 00:00:00.0000, 1.019243260830644E+08, -2.699914100569836E+08, 1.122229836347466E+08,
2461036.500000000, A.D. 2025-Dec-27 00:00:00.0000, 1.134260793584539E+08, -2.659621274078433E+08, 1.122393794324800E+08,
2461043.500000000, A.D. 2026-Jan-03 00:00:00.0000, 1.247433387608354E+08, -2.615002006332939E+08, 1.120731785251643E+08,
2461050.500000000, A.D. 2026-Jan-10 00:00:00.0000, 1.358586507556778E+08, -2.566149002552198E+08, 1.117255135773368E+08,
2461057.500000000, A.D. 2026-Jan-17 00:00:00.0000, 1.467549958923133E+08, -2.513159868221735E+08, 1.111977531888949E+08,
2461064.500000000, A.D. 2026-Jan-24 00:00:00.0000, 1.574157954042786E+08, -2.456136927694817E+08, 1.104914961297364E+08,
2461071.500000000, A.D. 2026-Jan-31 00:00:00.0000, 1.678249172254390E+08, -2.395187051771901E+08, 1.096085657841175E+08,
2461078.500000000, A.D. 2026-Feb-07 00:00:00.0000, 1.779666815872196E+08, -2.330421494573457E+08, 1.085510047970266E+08,
2461085.500000000, A.D. 2026-Feb-14 00:00:00.0000, 1.878258665514003E+08, -2.261955739591671E+08, 1.073210699064807E+08,
2461092.500000000, A.D. 2026-Feb-21 00:00:00.0000, 1.973877139593826E+08, -2.189909348906211E+08, 1.059212269851431E+08,
2461099.500000000, A.D. 2026-Feb-28 00:00:00.0000, 2.066379347950099E+08, -2.114405803786406E+08, 1.043541464927408E+08,
2461106.500000000, A.D. 2026-Mar-07 00:00:00.0000, 2.155627119745930E+08, -2.035572355872383E+08, 1.026226993666764E+08,
2461113.500000000, A.D. 2026-Mar-14 00:00:00.0000, 2.241487034082815E+08, -1.953539911856335E+08, 1.007299528962032E+08,
2461120.500000000, A.D. 2026-Mar-21 00:00:00.0000, 2.323830471845516E+08, -1.868442922235680E+08, 9.867916664422292E+07,
2461127.500000000, A.D. 2026-Mar-28 00:00:00.0000, 2.402533669348161E+08, -1.780419263401572E+08, 9.647378867706029E+07,
2461134.500000000, A.D. 2026-Apr-04 00:00:00.0000, 2.477477768359705E+08, -1.689610122249059E+08, 9.411745206932694E+07,
2461141.500000000, A.D. 2026-Apr-11 00:00:00.0000, 2.548548865820889E+08, -1.596159886410004E+08, 9.161397161846678E+07,
2461148.500000000, A.D. 2026-Apr-18 00:00:00.0000, 2.615638065382985E+08, -1.500216039654613E+08, 8.896734074194564E+07,
2461155.500000000, A.D. 2026-Apr-25 00:00:00.0000, 2.678641531729791E+08, -1.401929061776803E+08, 8.618172854133840E+07,
2461162.500000000, A.D. 2026-May-02 00:00:00.0000, 2.737460548452307E+08, -1.301452332710836E+08, 8.326147701396854E+07,
2461169.500000000, A.D. 2026-May-09 00:00:00.0000, 2.792001581127058E+08, -1.198942040972185E+08, 8.021109837824281E+07,
2461176.500000000, A.D. 2026-May-16 00:00:00.0000, 2.842176349730098E+08, -1.094557094412400E+08, 7.703527246934947E+07,
2461183.500000000, A.D. 2026-May-23 00:00:00.0000, 2.887901911268033E+08, -9.884590223905899E+07, 7.373884426640333E+07,
2461190.500000000, A.D. 2026-May-30 00:00:00.0000, 2.929100732220072E+08, -8.808118655427195E+07, 7.032682175341928E+07,
2461197.500000000, A.D. 2026-Jun-06 00:00:00.0000, 2.965700747896624E+08, -7.717820852854718E+07, 6.680437385563123E+07,
2461204.500000000, A.D. 2026-Jun-13 00:00:00.0000, 2.997635445550625E+08, -6.615384903756843E+07, 6.317682810509615E+07,
2461211.500000000, A.D. 2026-Jun-20 00:00:00.0000, 3.024843966405415E+08, -5.502521505229530E+07, 5.944966829585458E+07,
2461218.500000000, A.D. 2026-Jun-27 00:00:00.0000, 3.047271209779267E+08, -4.380962997185391E+07, 5.562853223264740E+07,
2461225.500000000, A.D. 2026-Jul-04 00:00:00.0000, 3.064867939419157E+08, -3.252462362840729E+07, 5.171920948414399E+07,
2461232.500000000, A.D. 2026-Jul-11 00:00:00.0000, 3.077590894642054E+08, -2.118792201894027E+07, 4.772763907900976E+07,
2461239.500000000, A.D. 2026-Jul-18 00:00:00.0000, 3.085402907218804E+08, -9.817436658682214E+06, 4.365990710930793E+07,
2461246.500000000, A.D. 2026-Jul-25 00:00:00.0000, 3.088273024204115E+08, 1.568746528535955E+06, 3.952224420885199E+07,
2461253.500000000, A.D. 2026-Aug-01 00:00:00.0000, 3.086176637106959E+08, 1.295237881862938E+07, 3.532102286659136E+07,
2461260.500000000, A.D. 2026-Aug-08 00:00:00.0000, 3.079095619400666E+08, 2.431506084198061E+07, 3.106275451875948E+07,
2461267.500000000, A.D. 2026-Aug-15 00:00:00.0000, 3.067018476240253E+08, 3.563825581944282E+07, 2.675408638126844E+07,
2461274.500000000, A.D. 2026-Aug-22 00:00:00.0000, 3.049940498392265E+08, 4.690330519586728E+07, 2.240179815457659E+07,
2461281.500000000, A.D. 2026-Aug-29 00:00:00.0000, 3.027863897198774E+08, 5.809144539691879E+07, 1.801279866504968E+07,
2461288.500000000, A.D. 2026-Sep-05 00:00:00.0000, 3.000797941553369E+08, 6.918382292827520E+07, 1.359412197432798E+07,
2461295.500000000, A.D. 2026-Sep-12 00:00:00.0000, 2.968759120838121E+08, 8.016151040343405E+07, 9.152922892087717E+06,
$$EOE